[{"OBJECT_NAME":"GLOBALSTAR M085","OBJECT_ID":"2011-033D","EPOCH":"2026-03-09T12:08:03.063264","MEAN_MOTION":12.62269695,"ECCENTRICITY":7.483e-5,"INCLINATION":52.0119,"RA_OF_ASC_NODE":136.5937,"ARG_OF_PERICENTER":109.258,"MEAN_ANOMALY":354.277,"EPHEMERIS_TYPE":0,"CLASSIFICATION_TYPE":"U","NORAD_CAT_ID":37742,"ELEMENT_SET_NO":999,"REV_AT_EPOCH":67720,"BSTAR":0.00012590606,"MEAN_MOTION_DOT":-8.1e-7,"MEAN_MOTION_DDOT":0},{"OBJECT_NAME":"COSMOS 568","OBJECT_ID":"1973-037E","EPOCH":"2026-03-09T22:22:17.574240","MEAN_MOTION":12.58951906,"ECCENTRICITY":0.00680762,"INCLINATION":74.0216,"RA_OF_ASC_NODE":17.2342,"ARG_OF_PERICENTER":212.5845,"MEAN_ANOMALY":205.1507,"EPHEMERIS_TYPE":0,"CLASSIFICATION_TYPE":"U","NORAD_CAT_ID":6679,"ELEMENT_SET_NO":999,"REV_AT_EPOCH":42427,"BSTAR":6.2982552e-5,"MEAN_MOTION_DOT":-6.0e-8,"MEAN_MOTION_DDOT":0}]
